[{"OBJECT_NAME":"STARLINK-31095","OBJECT_ID":"2023-211S","EPOCH":"2026-03-09T10:41:02.039136","MEAN_MOTION":15.2759888,"ECCENTRICITY":0.00021865,"INCLINATION":43.0059,"RA_OF_ASC_NODE":86.9674,"ARG_OF_PERICENTER":291.6017,"MEAN_ANOMALY":68.4602,"EPHEMERIS_TYPE":0,"CLASSIFICATION_TYPE":"U","NORAD_CAT_ID":58683,"ELEMENT_SET_NO":999,"REV_AT_EPOCH":12369,"BSTAR":-0.00013971009,"MEAN_MOTION_DOT":-4.107e-5,"MEAN_MOTION_DDOT":0},{"OBJECT_NAME":"FLOCK 4G-30","OBJECT_ID":"2025-009BY","EPOCH":"2026-03-09T17:00:32.842080","MEAN_MOTION":15.27244548,"ECCENTRICITY":0.00037948,"INCLINATION":97.3969,"RA_OF_ASC_NODE":150.6012,"ARG_OF_PERICENTER":342.4152,"MEAN_ANOMALY":17.6955,"EPHEMERIS_TYPE":0,"CLASSIFICATION_TYPE":"U","NORAD_CAT_ID":62679,"ELEMENT_SET_NO":999,"REV_AT_EPOCH":12134,"BSTAR":0.00049474629,"MEAN_MOTION_DOT":0.00013147,"MEAN_MOTION_DDOT":0}]
